start=new Date('2021-10-28T00:00:00.000Z').valueOf();
sats=[{"TIME_SYSTEM":"UTC","EPHEMERIS_TYPE":"0","SEMIMAJOR_AXIS":"6925.330","OBJECT_ID":"2021-041AY","PERIOD":"95.592","TLE_LINE2":"2 48599  53.0555  71.6678 0001247  89.5532 270.5600 15.06406024 26456","ELEMENT_SET_NO":"999","MEAN_MOTION_DOT":"0.00000008","MEAN_MOTION":"15.06406024","ECCENTRICITY":"0.00012470","OBJECT_NAME":"STARLINK-2274","INCLINATION":"53.0555","EPOCH":"2021-10-27T20:11:19.723200","OBJECT_TYPE":"PAYLOAD","BSTAR":"0.00001945200000","PERIAPSIS":"546.332","REV_AT_EPOCH":"2645","FILE":"3187662","GP_ID":"188285885","MEAN_ANOMALY":"270.5600","DECAY_DATE":null,"CLASSIFICATION_TYPE":"U","SITE":"AFETR","MEAN_MOTION_DDOT":"0.0000000000000","TLE_LINE1":"1 48599U 21041AY  21300.84120050  .00000008  00000-0  19452-4 0  9992","APOAPSIS":"548.059","NORAD_CAT_ID":"48599","CENTER_NAME":"EARTH","RA_OF_ASC_NODE":"71.6678","COUNTRY_CODE":"US","RCS_SIZE":"LARGE","ARG_OF_PERICENTER":"89.5532","REF_FRAME":"TEME","LAUNCH_DATE":"2021-05-15","MEAN_ELEMENT_THEORY":"SGP4"},{"ARG_OF_PERICENTER":"82.7730","REF_FRAME":"TEME","LAUNCH_DATE":"2021-05-15","MEAN_ELEMENT_THEORY":"SGP4","CENTER_NAME":"EARTH","NORAD_CAT_ID":"48600","RA_OF_ASC_NODE":"89.7900","COUNTRY_CODE":"US","RCS_SIZE":"LARGE","TLE_LINE1":"1 48600U 21041AZ  21300.14872142  .00000958  00000-0  83204-4 0  9994","APOAPSIS":"548.436","MEAN_ANOMALY":"277.3457","CLASSIFICATION_TYPE":"U","DECAY_DATE":null,"SITE":"AFETR","MEAN_MOTION_DDOT":"0.0000000000000","FILE":"3187107","GP_ID":"188274231","OBJECT_TYPE":"PAYLOAD","EPOCH":"2021-10-27T03:34:09.530688","BSTAR":"0.00008320400000","REV_AT_EPOCH":"2613","PERIAPSIS":"546.023","MEAN_MOTION_DOT":"0.00000958","ELEMENT_SET_NO":"999","MEAN_MOTION":"15.06394748","ECCENTRICITY":"0.00017420","OBJECT_NAME":"STARLINK-2275","INCLINATION":"53.0521","TIME_SYSTEM":"UTC","EPHEMERIS_TYPE":"0","SEMIMAJOR_AXIS":"6925.365","OBJECT_ID":"2021-041AZ","PERIOD":"95.592","TLE_LINE2":"2 48600  53.0521  89.7900 0001742  82.7730 277.3457 15.06394748 26134"},{"INCLINATION":"53.0399","MEAN_MOTION":"15.06402189","ELEMENT_SET_NO":"999","MEAN_MOTION_DOT":"0.00000337","OBJECT_NAME":"STARLINK-2713","ECCENTRICITY":"0.00014990","OBJECT_ID":"2021-041BB","SEMIMAJOR_AXIS":"6925.342","TLE_LINE2":"2 48602  53.0399  71.8990 0001499  87.3794 272.7367 15.06402189 26442","PERIOD":"95.592","EPHEMERIS_TYPE":"0","TIME_SYSTEM":"UTC","FILE":"3187662","GP_ID":"188285565","BSTAR":"0.00004152100000","EPOCH":"2021-10-27T19:23:34.776960","OBJECT_TYPE":"PAYLOAD","PERIAPSIS":"546.169","REV_AT_EPOCH":"2644","TLE_LINE1":"1 48602U 21041BB  21300.80804140  .00000337  00000-0  41521-4 0  9999","APOAPSIS":"548.245","MEAN_MOTION_DDOT":"0.0000000000000","SITE":"AFETR","CLASSIFICATION_TYPE":"U","DECAY_DATE":null,"MEAN_ANOMALY":"272.7367","LAUNCH_DATE":"2021-05-15","REF_FRAME":"TEME","MEAN_ELEMENT_THEORY":"SGP4","ARG_OF_PERICENTER":"87.3794","RA_OF_ASC_NODE":"71.8990","COUNTRY_CODE":"US","RCS_SIZE":"LARGE","NORAD_CAT_ID":"48602","CENTER_NAME":"EARTH"},{"NORAD_CAT_ID":"48603","CENTER_NAME":"EARTH","RCS_SIZE":"LARGE","COUNTRY_CODE":"US","RA_OF_ASC_NODE":"67.2470","ARG_OF_PERICENTER":"88.0779","MEAN_ELEMENT_THEORY":"SGP4","LAUNCH_DATE":"2021-05-15","REF_FRAME":"TEME","CLASSIFICATION_TYPE":"U","DECAY_DATE":null,"MEAN_ANOMALY":"272.0388","MEAN_MOTION_DDOT":"0.0000000000000","SITE":"AFETR","APOAPSIS":"548.277","TLE_LINE1":"1 48603U 21041BC  21300.72093802 -.00001073  00000-0 -53156-4 0  9993","PERIAPSIS":"546.121","REV_AT_EPOCH":"2650","BSTAR":"-0.00005315600000","OBJECT_TYPE":"PAYLOAD","EPOCH":"2021-10-27T17:18:09.044928","GP_ID":"188285582","FILE":"3187663","TIME_SYSTEM":"UTC","EPHEMERIS_TYPE":"0","TLE_LINE2":"2 48603  53.0512  67.2470 0001557  88.0779 272.0388 15.06404697 26507","PERIOD":"95.592","OBJECT_ID":"2021-041BC","SEMIMAJOR_AXIS":"6925.334","OBJECT_NAME":"STARLINK-2714","ECCENTRICITY":"0.00015570","MEAN_MOTION":"15.06404697","ELEMENT_SET_NO":"999","MEAN_MOTION_DOT":"-0.00001073","INCLINATION":"53.0512"},{"CENTER_NAME":"EARTH","NORAD_CAT_ID":"48604","RCS_SIZE":"LARGE","COUNTRY_CODE":"US","RA_OF_ASC_NODE":"96.9097","ARG_OF_PERICENTER":"89.1743","MEAN_ELEMENT_THEORY":"SGP4","REF_FRAME":"TEME","LAUNCH_DATE":"2021-05-15","MEAN_ANOMALY":"270.9465","CLASSIFICATION_TYPE":"U","DECAY_DATE":null,"SITE":"AFETR","MEAN_MOTION_DDOT":"0.0000000000000","APOAPSIS":"548.540","TLE_LINE1":"1 48604U 21041BD  21300.78915224 -.00000301  00000-0 -13302-5 0  9994","REV_AT_EPOCH":"2609","PERIAPSIS":"545.887","EPOCH":"2021-10-27T18:56:22.753536","OBJECT_TYPE":"PAYLOAD","BSTAR":"-0.00000133020000","GP_ID":"188285566","FILE":"3187662","EPHEMERIS_TYPE":"0","TIME_SYSTEM":"UTC","PERIOD":"95.592","TLE_LINE2":"2 48604  53.0553  96.9097 0001915  89.1743 270.9465 15.06400064 26099","SEMIMAJOR_AXIS":"6925.348","OBJECT_ID":"2021-041BD","OBJECT_NAME":"STARLINK-2757","ECCENTRICITY":"0.00019150","ELEMENT_SET_NO":"999","MEAN_MOTION_DOT":"-0.00000301","MEAN_MOTION":"15.06400064","INCLINATION":"53.0553"},{"MEAN_ANOMALY":"281.5796","CLASSIFICATION_TYPE":"U","DECAY_DATE":null,"SITE":"AFETR","MEAN_MOTION_DDOT":"0.0000000000000","APOAPSIS":"548.347","TLE_LINE1":"1 48638U 21044A   21300.67440019 -.00001203  00000-0 -61863-4 0  9993","NORAD_CAT_ID":"48638","CENTER_NAME":"EARTH","RCS_SIZE":"LARGE","RA_OF_ASC_NODE":"72.4175","COUNTRY_CODE":"US","ARG_OF_PERICENTER":"78.5376","MEAN_ELEMENT_THEORY":"SGP4","REF_FRAME":"TEME","LAUNCH_DATE":"2021-05-26","EPHEMERIS_TYPE":"0","TIME_SYSTEM":"UTC","PERIOD":"95.592","TLE_LINE2":"2 48638  53.0563  72.4175 0001629  78.5376 281.5796 15.06398205 24422","SEMIMAJOR_AXIS":"6925.354","OBJECT_ID":"2021-044A","OBJECT_NAME":"STARLINK-2758","ECCENTRICITY":"0.00016290","MEAN_MOTION_DOT":"-0.00001203","ELEMENT_SET_NO":"999","MEAN_MOTION":"15.06398205","INCLINATION":"53.0563","REV_AT_EPOCH":"2442","PERIAPSIS":"546.091","EPOCH":"2021-10-27T16:11:08.176416","OBJECT_TYPE":"PAYLOAD","BSTAR":"-0.00006186300000","GP_ID":"188274851","FILE":"3187215"},{"MEAN_ANOMALY":"273.6045","DECAY_DATE":null,"CLASSIFICATION_TYPE":"U","SITE":"AFETR","MEAN_MOTION_DDOT":"0.0000000000000","TLE_LINE1":"1 48639U 21044B   21300.79235115  .00000087  00000-0  24753-4 0  9990","APOAPSIS":"548.180","NORAD_CAT_ID":"48639","CENTER_NAME":"EARTH","COUNTRY_CODE":"US","RA_OF_ASC_NODE":"71.8851","RCS_SIZE":"LARGE","ARG_OF_PERICENTER":"86.5099","REF_FRAME":"TEME","LAUNCH_DATE":"2021-05-26","MEAN_ELEMENT_THEORY":"SGP4","TIME_SYSTEM":"UTC","EPHEMERIS_TYPE":"0","SEMIMAJOR_AXIS":"6925.376","OBJECT_ID":"2021-044B","PERIOD":"95.593","TLE_LINE2":"2 48639  53.0551  71.8851 0001355  86.5099 273.6045 15.06390913 24440","MEAN_MOTION_DOT":"0.00000087","ELEMENT_SET_NO":"999","MEAN_MOTION":"15.06390913","ECCENTRICITY":"0.00013550","OBJECT_NAME":"STARLINK-2739","INCLINATION":"53.0551","EPOCH":"2021-10-27T19:00:59.139360","OBJECT_TYPE":"PAYLOAD","BSTAR":"0.00002475300000","PERIAPSIS":"546.303","REV_AT_EPOCH":"2444","FILE":"3187746","GP_ID":"188287247"},{"APOAPSIS":"548.146","TLE_LINE1":"1 48640U 21044C   21300.36110129 -.00000159  00000-0  82235-5 0  9993","SITE":"AFETR","MEAN_MOTION_DDOT":"0.0000000000000","MEAN_ANOMALY":"273.0330","DECAY_DATE":null,"CLASSIFICATION_TYPE":"U","MEAN_ELEMENT_THEORY":"SGP4","REF_FRAME":"TEME","LAUNCH_DATE":"2021-05-26","ARG_OF_PERICENTER":"87.0811","RCS_SIZE":"LARGE","COUNTRY_CODE":"US","RA_OF_ASC_NODE":"73.8237","NORAD_CAT_ID":"48640","CENTER_NAME":"EARTH","INCLINATION":"53.0568","ECCENTRICITY":"0.00013270","OBJECT_NAME":"STARLINK-2736","MEAN_MOTION_DOT":"-0.00000159","ELEMENT_SET_NO":"999","MEAN_MOTION":"15.06395603","PERIOD":"95.592","TLE_LINE2":"2 48640  53.0568  73.8237 0001327  87.0811 273.0330 15.06395603 23471","SEMIMAJOR_AXIS":"6925.362","OBJECT_ID":"2021-044C","TIME_SYSTEM":"UTC","EPHEMERIS_TYPE":"0","GP_ID":"188274013","FILE":"3187107","REV_AT_EPOCH":"2347","PERIAPSIS":"546.308","EPOCH":"2021-10-27T08:39:59.151456","OBJECT_TYPE":"PAYLOAD","BSTAR":"0.00000822350000"},{"GP_ID":"188275261","FILE":"3187265","PERIAPSIS":"546.244","REV_AT_EPOCH":"2435","BSTAR":"0.00000702700000","EPOCH":"2021-10-27T15:58:32.982528","OBJECT_TYPE":"PAYLOAD","OBJECT_NAME":"STARLINK-2754","ECCENTRICITY":"0.00013770","MEAN_MOTION":"15.06405064","ELEMENT_SET_NO":"999","MEAN_MOTION_DOT":"-0.00000177","INCLINATION":"53.0560","EPHEMERIS_TYPE":"0","TIME_SYSTEM":"UTC","TLE_LINE2":"2 48641  53.0560  77.4621 0001377  96.0492 264.0653 15.06405064 24350","PERIOD":"95.592","OBJECT_ID":"2021-044D","SEMIMAJOR_AXIS":"6925.333","ARG_OF_PERICENTER":"96.0492","MEAN_ELEMENT_THEORY":"SGP4","LAUNCH_DATE":"2021-05-26","REF_FRAME":"TEME","NORAD_CAT_ID":"48641","CENTER_NAME":"EARTH","RCS_SIZE":"LARGE","RA_OF_ASC_NODE":"77.4621","COUNTRY_CODE":"US","APOAPSIS":"548.152","TLE_LINE1":"1 48641U 21044D   21300.66565952 -.00000177  00000-0  70270-5 0  9991","CLASSIFICATION_TYPE":"U","DECAY_DATE":null,"MEAN_ANOMALY":"264.0653","MEAN_MOTION_DDOT":"0.0000000000000","SITE":"AFETR"},{"BSTAR":"0.00002850100000","EPOCH":"2021-10-27T16:18:25.868448","OBJECT_TYPE":"PAYLOAD","PERIAPSIS":"546.273","REV_AT_EPOCH":"2429","FILE":"3187236","GP_ID":"188275174","EPHEMERIS_TYPE":"0","TIME_SYSTEM":"UTC","OBJECT_ID":"2021-044E","SEMIMAJOR_AXIS":"6925.367","TLE_LINE2":"2 48642  53.0550  77.3912 0001384  86.1788 273.9359 15.06394061 24297","PERIOD":"95.593","MEAN_MOTION":"15.06394061","ELEMENT_SET_NO":"999","MEAN_MOTION_DOT":"0.00000143","ECCENTRICITY":"0.00013840","OBJECT_NAME":"STARLINK-2646","INCLINATION":"53.0550","CENTER_NAME":"EARTH","NORAD_CAT_ID":"48642","COUNTRY_CODE":"US","RA_OF_ASC_NODE":"77.3912","RCS_SIZE":"LARGE","ARG_OF_PERICENTER":"86.1788","LAUNCH_DATE":"2021-05-26","REF_FRAME":"TEME","MEAN_ELEMENT_THEORY":"SGP4","CLASSIFICATION_TYPE":"U","DECAY_DATE":null,"MEAN_ANOMALY":"273.9359","MEAN_MOTION_DDOT":"0.0000000000000","SITE":"AFETR","TLE_LINE1":"1 48642U 21044E   21300.67946607  .00000143  00000-0  28501-4 0  9994","APOAPSIS":"548.190"}];
